NORAD_CAT_ID,OBJECT_NAME,OBJECT_TYPE,EPOCH,MEAN_MOTION,ECCENTRICITY,INCLINATION,RA_OF_ASC_NODE,ARG_OF_PERICENTER,MEAN_ANOMALY,BSTAR,MEAN_MOTION_DOT,MEAN_MOTION_DDOT,TLE_LINE0,TLE_LINE1,TLE_LINE2,SEMIMAJOR_AXIS,PERIOD,APOGEE,PERIGEE,DECAYED
52376.0,STARLINK-3767,PAYLOAD,2023-03-07 17:59:27,15.08828693,0.0001977,53.2164,77.9633,97.5626,262.5591,0.00052315,8.045e-05,0.0,0 STARLINK-3767,1 52376U 22045AX  23066.74962912  .00008045  00000-0  52315-3 0  9999,2 52376  53.2164  77.9633 0001977  97.5626 262.5591 15.08828693 50173,6917.915,95.438,541.148,538.412,0.0
52376.0,STARLINK-3767,PAYLOAD,2023-03-08 06:42:32,15.08850439,0.0001273,53.2156,75.5869,100.1196,259.994,0.0016221,0.00025629,0.0,0 STARLINK-3767,1 52376U 22045AX  23067.27954598  .00025629  00000-0  16221-2 0  9991,2 52376  53.2156  75.5869 0001273 100.1196 259.9940 15.08850439 50251,6917.848,95.437,540.594,538.833,0.0
52376.0,STARLINK-3767,PAYLOAD,2023-03-08 17:50:14,15.08869137,0.0001012,53.2163,73.5064,98.5817,261.529,0.0019742,0.00031296,0.0,0 STARLINK-3767,1 52376U 22045AX  23067.74322212  .00031296  00000-0  19742-2 0  9993,2 52376  53.2163  73.5064 0001012  98.5817 261.5290 15.08869137 50325,6917.791,95.436,540.356,538.956,0.0
52376.0,STARLINK-3767,PAYLOAD,2023-03-09 00:11:47,15.08864308,0.0002033,53.2153,72.3154,111.3733,248.7476,0.0020953,0.00033239,0.0,0 STARLINK-3767,1 52376U 22045AX  23068.00818548  .00033239  00000-0  20953-2 0  9990,2 52376  53.2153  72.3154 0002033 111.3733 248.7476 15.08864308 50368,6917.806,95.436,541.077,538.265,0.0
52376.0,STARLINK-3767,PAYLOAD,2023-03-09 06:33:19,15.08856003,0.0001894,53.2154,71.126,110.0089,250.1107,0.00081753,0.00012753,0.0,0 STARLINK-3767,1 52376U 22045AX  23068.27314206  .00012753  00000-0  81753-3 0  9995,2 52376  53.2154  71.1260 0001894 110.0089 250.1107 15.08856003 50404,6917.831,95.437,541.007,538.386,0.0
52376.0,STARLINK-3767,PAYLOAD,2023-03-09 17:41:01,15.0885445,0.0001112,53.2155,69.0448,106.6739,253.4375,0.00052496,8.08e-05,0.0,0 STARLINK-3767,1 52376U 22045AX  23068.73681858  .00008080  00000-0  52496-3 0  9996,2 52376  53.2155  69.0448 0001112 106.6739 253.4375 15.08854450 50479,6917.836,95.437,540.47,538.932,0.0
52376.0,STARLINK-3767,PAYLOAD,2023-03-10 06:24:05,15.08861167,0.0001424,53.2176,66.6648,107.0416,253.0732,0.00041984,6.404e-05,0.0,0 STARLINK-3767,1 52376U 22045AX  23069.26673396  .00006404  00000-0  41984-3 0  9991,2 52376  53.2176  66.6648 0001424 107.0416 253.0732 15.08861167 50555,6917.816,95.436,540.666,538.696,0.0
52376.0,STARLINK-3767,PAYLOAD,2023-03-11 06:14:53,15.08836102,0.0001339,53.2182,62.2072,92.2738,267.8407,-4.3699e-06,-3.57e-06,0.0,0 STARLINK-3767,1 52376U 22045AX  23070.26034340 -.00000357  00000-0 -43699-5 0  9993,2 52376  53.2182  62.2072 0001339  92.2738 267.8407 15.08836102 50702,6917.892,95.438,540.684,538.831,0.0
52376.0,STARLINK-3767,PAYLOAD,2023-03-11 11:01:02,15.0884225,0.0001326,53.2193,61.3123,90.3771,269.7373,0.00018761,2.699e-05,0.0,0 STARLINK-3767,1 52376U 22045AX  23070.45906136  .00002699  00000-0  18761-3 0  9994,2 52376  53.2193  61.3123 0001326  90.3771 269.7373 15.08842250 50730,6917.874,95.437,540.656,538.821,0.0
52376.0,STARLINK-3767,PAYLOAD,2023-03-12 09:16:27,15.08838012,0.0001359,53.2189,57.1504,88.9843,271.1305,0.00021712,3.169e-05,0.0,0 STARLINK-3767,1 52376U 22045AX  23071.38642423  .00003169  00000-0  21712-3 0  9996,2 52376  53.2189  57.1504 0001359  88.9843 271.1305 15.08838012 50878,6917.886,95.438,540.692,538.811,0.0
52376.0,STARLINK-3767,PAYLOAD,2023-03-12 10:51:49,15.08853657,0.0001689,53.2181,56.8513,116.6968,243.4198,0.00039401,5.991e-05,0.0,0 STARLINK-3767,1 52376U 22045AX  23071.45265820  .00005991  00000-0  39401-3 0  9995,2 52376  53.2181  56.8513 0001689 116.6968 243.4198 15.08853657 50884,6917.839,95.437,540.872,538.535,0.0
52376.0,STARLINK-3767,PAYLOAD,2023-03-12 21:59:32,15.08844598,0.0001972,53.2188,54.7757,77.2446,282.8767,0.00031786,4.775e-05,0.0,0 STARLINK-3767,1 52376U 22045AX  23071.91634739  .00004775  00000-0  31786-3 0  9992,2 52376  53.2188  54.7757 0001972  77.2446 282.8767 15.08844598 50957,6917.866,95.437,541.096,538.367,0.0
52376.0,STARLINK-3767,PAYLOAD,2023-03-13 04:21:04,15.08847087,0.000162,53.219,53.5818,105.7902,254.3269,0.00035347,5.343e-05,0.0,0 STARLINK-3767,1 52376U 22045AX  23072.18130420  .00005343  00000-0  35347-3 0  9999,2 52376  53.2190  53.5818 0001620 105.7902 254.3269 15.08847087 50990,6917.859,95.437,540.844,538.603,0.0
52376.0,STARLINK-3767,PAYLOAD,2023-03-13 10:42:37,15.08865435,0.0001067,53.2185,52.3938,91.0922,269.0193,0.0016763,0.0002651,0.0,0 STARLINK-3767,1 52376U 22045AX  23072.44626207  .00026510  00000-0  16763-2 0  9990,2 52376  53.2185  52.3938 0001067  91.0922 269.0193 15.08865435 51030,6917.803,95.436,540.406,538.93,0.0
52376.0,STARLINK-3767,PAYLOAD,2023-03-14 05:47:15,15.0884303,0.0001202,53.2181,48.8245,69.7954,290.3167,0.0012143,0.00019092,0.0,0 STARLINK-3767,1 52376U 22045AX  23073.24115087  .00019092  00000-0  12143-2 0  9993,2 52376  53.2181  48.8245 0001202  69.7954 290.3167 15.08843030 51153,6917.871,95.437,540.568,538.905,0.0
52376.0,STARLINK-3767,PAYLOAD,2023-03-14 07:22:38,15.08845557,0.0001312,53.2183,48.5281,70.7228,289.3906,0.0014753,0.00023273,0.0,0 STARLINK-3767,1 52376U 22045AX  23073.30739090  .00023273  00000-0  14753-2 0  9991,2 52376  53.2183  48.5281 0001312  70.7228 289.3906 15.08845557 51166,6917.863,95.437,540.636,538.821,0.0
52376.0,STARLINK-3767,PAYLOAD,2023-03-14 21:41:06,15.08858896,0.0001243,53.2179,45.8519,85.5491,274.5643,0.0012031,0.00018921,0.0,0 STARLINK-3767,1 52376U 22045AX  23073.90354784  .00018921  00000-0  12031-2 0  9991,2 52376  53.2179  45.8519 0001243  85.5491 274.5643 15.08858896 51258,6917.823,95.436,540.548,538.828,0.0
52376.0,STARLINK-3767,PAYLOAD,2023-03-15 10:24:10,15.08900422,0.0001334,53.2173,43.4724,84.6846,275.4298,0.002054,0.00032607,0.0,0 STARLINK-3767,1 52376U 22045AX  23074.43345233  .00032607  00000-0  20540-2 0  9990,2 52376  53.2173  43.4724 0001334  84.6846 275.4298 15.08900422 51337,6917.696,95.434,540.484,538.638,0.0
52376.0,STARLINK-3767,PAYLOAD,2023-03-15 21:31:53,15.08831259,0.0001276,53.2182,41.3926,58.8383,301.2734,0.00029972,4.484e-05,0.0,0 STARLINK-3767,1 52376U 22045AX  23074.89714308  .00004484  00000-0  29972-3 0  9994,2 52376  53.2182  41.3926 0001276  58.8383 301.2734 15.08831259 51404,6917.907,95.438,540.655,538.889,0.0
52376.0,STARLINK-3767,PAYLOAD,2023-03-16 03:53:25,15.08839284,0.0001651,53.2167,40.2018,83.9554,276.1626,0.0013006,0.00020471,0.0,0 STARLINK-3767,1 52376U 22045AX  23075.16210258  .00020471  00000-0  13006-2 0  9994,2 52376  53.2167  40.2018 0001651  83.9554 276.1626 15.08839284 51443,6917.883,95.438,540.89,538.605,0.0
52376.0,STARLINK-3767,PAYLOAD,2023-03-17 06:54:59,15.08844179,0.0001422,53.2167,35.1448,85.7275,274.388,0.00076614,0.00011928,0.0,0 STARLINK-3767,1 52376U 22045AX  23076.28818773  .00011928  00000-0  76614-3 0  9996,2 52376  53.2167  35.1448 0001422  85.7275 274.3880 15.08844179 51619,6917.868,95.437,540.716,538.749,0.0
52376.0,STARLINK-3767,PAYLOAD,2023-03-17 21:13:28,15.08830703,0.0001967,53.2168,32.4675,98.2402,261.8813,0.00048294,7.404e-05,0.0,0 STARLINK-3767,1 52376U 22045AX  23076.88435239  .00007404  00000-0  48294-3 0  9991,2 52376  53.2168  32.4675 0001967  98.2402 261.8813 15.08830703 51702,6917.909,95.438,541.135,538.413,0.0
52376.0,STARLINK-3767,PAYLOAD,2023-03-18 03:35:00,15.08841276,0.0001585,53.2159,31.2804,81.4831,278.6341,0.00030356,4.547e-05,0.0,0 STARLINK-3767,1 52376U 22045AX  23077.14931185  .00004547  00000-0  30356-3 0  9997,2 52376  53.2159  31.2804 0001585  81.4831 278.6341 15.08841276 51742,6917.876,95.437,540.838,538.645,0.0
52376.0,STARLINK-3767,PAYLOAD,2023-03-19 03:25:47,15.08848012,0.0001167,53.2172,26.8192,80.7523,279.3601,0.00033135,4.991e-05,0.0,0 STARLINK-3767,1 52376U 22045AX  23078.14291104  .00004991  00000-0  33135-3 0  9999,2 52376  53.2172  26.8192 0001167  80.7523 279.3601 15.08848012 51891,6917.856,95.437,540.528,538.914,0.0
52376.0,STARLINK-3767,PAYLOAD,2023-03-19 12:58:06,15.08850361,0.000114,53.2161,25.0341,77.8001,282.3119,0.00033837,5.103e-05,0.0,0 STARLINK-3767,1 52376U 22045AX  23078.54035071  .00005103  00000-0  33837-3 0  9997,2 52376  53.2161  25.0341 0001140  77.8001 282.3119 15.08850361 51950,6917.849,95.437,540.502,538.925,0.0
52376.0,STARLINK-3767,PAYLOAD,2023-03-20 04:51:56,15.08867356,0.0001366,53.2178,22.0637,100.1259,259.9887,0.0008029,0.00012523,0.0,0 STARLINK-3767,1 52376U 22045AX  23079.20274211  .00012523  00000-0  80290-3 0  9991,2 52376  53.2178  22.0637 0001366 100.1259 259.9887 15.08867356 52054,6917.797,95.436,540.607,538.717,0.0
52376.0,STARLINK-3767,PAYLOAD,2023-03-20 12:48:52,15.08850909,0.0001453,53.2179,20.5763,85.0489,275.0669,0.0001841,2.644e-05,0.0,0 STARLINK-3767,1 52376U 22045AX  23079.53394456  .00002644  00000-0  18410-3 0  9999,2 52376  53.2179  20.5763 0001453  85.0489 275.0669 15.08850909 52100,6917.847,95.437,540.717,538.707,0.0
52376.0,STARLINK-3767,PAYLOAD,2023-03-21 04:42:44,15.08843954,0.0001072,53.2166,17.6002,78.9562,281.1551,4.5893e-05,4.43e-06,0.0,0 STARLINK-3767,1 52376U 22045AX  23080.19634770  .00000443  00000-0  45893-4 0  9990,2 52376  53.2166  17.6002 0001072  78.9562 281.1551 15.08843954 52200,6917.868,95.437,540.475,538.992,0.0
52376.0,STARLINK-3767,PAYLOAD,2023-03-22 04:33:32,15.08843625,0.0001269,53.2175,13.1431,104.1001,256.0132,0.00042202,6.436e-05,0.0,0 STARLINK-3767,1 52376U 22045AX  23081.18995654  .00006436  00000-0  42202-3 0  9999,2 52376  53.2175  13.1431 0001269 104.1001 256.0132 15.08843625 52352,6917.869,95.437,540.612,538.856,0.0
52376.0,STARLINK-3767,PAYLOAD,2023-03-23 04:24:18,15.08865472,0.0001304,53.2172,8.6809,96.7869,263.3272,0.0010292,0.00016141,0.0,0 STARLINK-3767,1 52376U 22045AX  23082.18355130  .00016141  00000-0  10292-2 0  9996,2 52376  53.2172   8.6809 0001304  96.7869 263.3272 15.08865472 52502,6917.803,95.436,540.57,538.765,0.0
